NORAD_CAT_ID,OBJECT_NAME,OBJECT_TYPE,EPOCH,MEAN_MOTION,ECCENTRICITY,INCLINATION,RA_OF_ASC_NODE,ARG_OF_PERICENTER,MEAN_ANOMALY,BSTAR,MEAN_MOTION_DOT,MEAN_MOTION_DDOT,TLE_LINE0,TLE_LINE1,TLE_LINE2,SEMIMAJOR_AXIS,PERIOD,APOGEE,PERIGEE,DECAYED
52537.0,STARLINK-3897,PAYLOAD,2022-05-18 18:00:00,15.82035606,0.0001216,53.2179,269.3716,50.0369,286.899,-0.0046891999999999,-0.00883512,0.0,0 STARLINK-3897,1 52537U 22051E   22138.75001157 -.00883512  00000-0 -46892-2 0  9994,2 52537  53.2179 269.3716 0001216  50.0369 286.8990 15.82035606  1300,6702.821999999999,91.022,325.502,323.872,0.0
52537.0,STARLINK-3897,PAYLOAD,2022-05-19 14:00:01,15.80459682,0.0001758,53.2174,265.1975,26.5992,16.873,-0.0050217,-0.00879619,0.0,0 STARLINK-3897,1 52537U 22051E   22139.58335648 -.00879619  00000-0 -50217-2 0  9990,2 52537  53.2174 265.1975 0001758  26.5992  16.8730 15.80459682  1302,6707.276999999999,91.113,330.321,327.963,0.0
52537.0,STARLINK-3897,PAYLOAD,2022-05-19 22:00:00,15.79829899,0.0001463,53.2172,263.5311,42.0321,98.6385,-0.0051648999999999,-0.00878732,0.0,0 STARLINK-3897,1 52537U 22051E   22139.91667824 -.00878732  00000-0 -51649-2 0  9996,2 52537  53.2172 263.5311 0001463  42.0321  98.6385 15.79829899  1480,6709.059,91.149,331.906,329.9430000000001,0.0
52537.0,STARLINK-3897,PAYLOAD,2022-05-20 14:00:01,15.7857111,0.0001740999999999,53.2176,260.2026,28.2249,304.7051,-0.005465,-0.00877925,0.0,0 STARLINK-3897,1 52537U 22051E   22140.58334491 -.00877925  00000-0 -54650-2 0  9990,2 52537  53.2176 260.2026 0001741  28.2249 304.7051 15.78571110  1306,6712.625,91.222,335.659,333.32199999999995,0.0
52537.0,STARLINK-3897,PAYLOAD,2022-05-20 22:00:00,15.77941328,0.0001846,53.2171,258.5404,24.4627,43.4628,-0.0056115,-0.00876292,0.0,0 STARLINK-3897,1 52537U 22051E   22140.91667824 -.00876292  00000-0 -56115-2 0  9990,2 52537  53.2171 258.5404 0001846  24.4627  43.4628 15.77941328  1640,6714.411,91.258,337.516,335.037,0.0
52537.0,STARLINK-3897,PAYLOAD,2022-05-21 06:00:00,15.77311944,0.0001882,53.2172,256.8783,29.9281,132.2376,-0.0057755,-0.00876653,0.0,0 STARLINK-3897,1 52537U 22051E   22141.25001157 -.00876653  00000-0 -57755-2 0  9991,2 52537  53.2172 256.8783 0001882  29.9281 132.2376 15.77311944  1303,6716.196999999999,91.295,339.326,336.798,0.0
52537.0,STARLINK-3897,PAYLOAD,2022-05-21 14:00:01,15.76681872,0.0002114,53.2173,255.2215,22.79,232.9236,-0.0059326,-0.00875637,0.0,0 STARLINK-3897,1 52537U 22051E   22141.58335648 -.00875637  00000-0 -59326-2 0  9999,2 52537  53.2173 255.2215 0002114  22.7900 232.9236 15.76681872  1307,6717.986,91.331,341.272,338.431,0.0
52537.0,STARLINK-3897,PAYLOAD,2022-05-21 20:00:01,15.76209649,0.0001279,53.2172,253.9786,41.669,193.5943,-0.0060437,-0.00873382,0.0,0 STARLINK-3897,1 52537U 22051E   22141.83334491 -.00873382  00000-0 -60437-2 0  9992,2 52537  53.2172 253.9786 0001279  41.6690 193.5943 15.76209649  1788,6719.328,91.358,342.05300000000005,340.334,0.0
52537.0,STARLINK-3897,PAYLOAD,2022-05-21 22:00:00,15.76054045,0.0001227,53.2173,253.564,40.7697,307.6043,-0.0061106,-0.00876606,0.0,0 STARLINK-3897,1 52537U 22051E   22141.91667824 -.00876606  00000-0 -61106-2 0  9996,2 52537  53.2173 253.5640 0001227  40.7697 307.6043 15.76054045  1309,6719.77,91.367,342.46,340.811,0.0
52537.0,STARLINK-3897,PAYLOAD,2022-05-22 14:00:01,15.74793734,0.0001773,53.2175,250.2543,36.6377,134.9218,-0.0064375,-0.00874019,0.0,0 STARLINK-3897,1 52537U 22051E   22142.58334491 -.00874019  00000-0 -64375-2 0  9998,2 52537  53.2175 250.2543 0001773  36.6377 134.9218 15.74793734  1906,6723.355,91.441,346.412,344.028,0.0
52537.0,STARLINK-3897,PAYLOAD,2022-05-22 22:00:01,15.741674599999998,0.0001433,53.2172,248.601,44.7509,217.3319,-0.0066677,-0.0088004,0.0,0 STARLINK-3897,1 52537U 22051E   22142.91668981 -.00880040  00000-0 -66677-2 0  9997,2 52537  53.2172 248.6010 0001433  44.7509 217.3319 15.74167460  1306,6725.138000000001,91.477,347.967,346.04,0.0
52537.0,STARLINK-3897,PAYLOAD,2022-05-23 04:00:00,15.73546939,0.0001688,53.2172,247.3611,38.8419,200.5504,-0.0035021,-0.0047253999999999,0.0,0 STARLINK-3897,1 52537U 22051E   22143.16667824 -.00472540  00000-0 -35021-2 0  9991,2 52537  53.2172 247.3611 0001688  38.8419 200.5504 15.73546939  1991,6726.906,91.513,349.907,347.636,0.0
52537.0,STARLINK-3897,PAYLOAD,2022-05-23 14:00:01,15.732072699999998,0.0001852,53.2172,245.301,30.8928,49.8626,-3.7804e-05,-5.925e-05,0.0,0 STARLINK-3897,1 52537U 22051E   22143.58334491 -.00005925  00000-0 -37804-4 0  9990,2 52537  53.2172 245.3010 0001852  30.8928  49.8626 15.73207270  1308,6727.874,91.533,350.985,348.49300000000005,0.0
52537.0,STARLINK-3897,PAYLOAD,2022-05-23 16:00:00,15.73204456,0.0001906,53.2174,244.8888,31.6803,161.3097,1.7788e-06,-3.71e-06,0.0,0 STARLINK-3897,1 52537U 22051E   22143.66667824 -.00000371  00000-0  17788-5 0  9997,2 52537  53.2174 244.8888 0001906  31.6803 161.3097 15.73204456  2078,6727.882,91.533,351.03,348.465,0.0
52537.0,STARLINK-3897,PAYLOAD,2022-05-23 20:00:01,15.73252636,0.0001973,53.2196,244.0745,34.6965,22.9341,0.00021669,0.00029968,0.0,0 STARLINK-3897,1 52537U 22051E   22143.83334491  .00029968  00000-0  21669-3 0  9990,2 52537  53.2196 244.0745 0001973  34.6965  22.9341 15.73252636  2103,6727.745,91.53,350.93699999999984,348.283,0.0
52537.0,STARLINK-3897,PAYLOAD,2022-05-23 22:00:01,15.73300229,0.0001868,53.2197,243.6616,35.0884,134.8446,-0.00049989,-0.00070497,0.0,0 STARLINK-3897,1 52537U 22051E   22143.91668981 -.00070497  00000-0 -49989-3 0  9993,2 52537  53.2197 243.6616 0001868  35.0884 134.8446 15.73300229  1306,6727.609,91.527,350.731,348.218,0.0
52537.0,STARLINK-3897,PAYLOAD,2022-05-24 04:00:00,15.73235367,0.0001754999999999,53.2193,242.4231,36.5416,110.0783,-0.00053529,-0.00075194,0.0,0 STARLINK-3897,1 52537U 22051E   22144.16667824 -.00075194  00000-0 -53529-3 0  9990,2 52537  53.2193 242.4231 0001755  36.5416 110.0783 15.73235367  2158,6727.794,91.531,350.84,348.47900000000016,0.0
52537.0,STARLINK-3897,PAYLOAD,2022-05-24 12:31:39,15.73259061,0.0001256,53.2213,240.6651,74.8109,285.305,0.00013303,0.00018137,0.0,0 STARLINK-3897,1 52537U 22051E   22144.52198483  .00018137  00000-0  13303-3 0  9998,2 52537  53.2213 240.6651 0001256  74.8109 285.3050 15.73259061  2214,6727.727,91.53,350.43699999999984,348.747,0.0
52537.0,STARLINK-3897,PAYLOAD,2022-05-24 22:00:00,15.73156473,0.0001871,53.2188,238.7133,25.5919,51.0609,-0.00040827,-0.00057426,0.0,0 STARLINK-3897,1 52537U 22051E   22144.91667824 -.00057426  00000-0 -40827-3 0  9998,2 52537  53.2188 238.7133 0001871  25.5919  51.0609 15.73156473  2270,6728.019,91.536,351.14300000000014,348.625,0.0
52537.0,STARLINK-3897,PAYLOAD,2022-05-25 06:00:00,15.73120817,0.0001685,53.2193,237.063,27.9934,137.5076,0.00057044,0.00079931,0.0,0 STARLINK-3897,1 52537U 22051E   22145.25001157  .00079931  00000-0  57044-3 0  9999,2 52537  53.2193 237.0630 0001685  27.9934 137.5076 15.73120817  2323,6728.121,91.538,351.12,348.852,0.0
52537.0,STARLINK-3897,PAYLOAD,2022-05-25 14:00:01,15.73166122,0.0002024,53.2191,235.416,23.6154,230.7635,0.00048231,0.00067519,0.0,0 STARLINK-3897,1 52537U 22051E   22145.58334491  .00067519  00000-0  48231-3 0  9992,2 52537  53.2191 235.4160 0002024  23.6154 230.7635 15.73166122  1309,6727.9919999999975,91.535,351.219,348.495,0.0
52537.0,STARLINK-3897,PAYLOAD,2022-05-25 20:32:48,15.73185047,0.0002385,53.2204,234.0632,31.1135,329.0026,0.00026657,0.00036934,0.0,0 STARLINK-3897,1 52537U 22051E   22145.85612033  .00036934  00000-0  26657-3 0  9998,2 52537  53.2204 234.0632 0002385  31.1135 329.0026 15.73185047  2423,6727.938,91.534,351.407,348.1980000000001,0.0
52537.0,STARLINK-3897,PAYLOAD,2022-05-26 05:41:40,15.73228097,0.0001904,53.2198,232.1772,31.2883,328.825,0.00020183,0.00027834,0.0,0 STARLINK-3897,1 52537U 22051E   22146.23727917  .00027834  00000-0  20183-3 0  9996,2 52537  53.2198 232.1772 0001904  31.2883 328.8250 15.73228097  2481,6727.815,91.532,350.961,348.399,0.0
52537.0,STARLINK-3897,PAYLOAD,2022-05-26 06:00:00,15.73293972,0.0002011,53.2193,232.115,28.9501,43.323,-0.00029084,-0.00041406,0.0,0 STARLINK-3897,1 52537U 22051E   22146.25001157 -.00041406  00000-0 -29084-3 0  9991,2 52537  53.2193 232.1150 0002011  28.9501  43.3230 15.73293972  2487,6727.627,91.528,350.845,348.139,0.0
52537.0,STARLINK-3897,PAYLOAD,2022-05-26 11:47:34,15.73331246,0.0002396,53.2196,230.9197,25.6833,334.4306,0.0006992,0.00099239,0.0,0 STARLINK-3897,1 52537U 22051E   22146.49137057  .00099239  00000-0  69920-3 0  9994,2 52537  53.2196 230.9197 0002396  25.6833 334.4306 15.73331246  2525,6727.521,91.526,350.99800000000016,347.774,0.0
52537.0,STARLINK-3897,PAYLOAD,2022-05-26 13:19:03,15.73289214,0.0002193,53.2196,230.6057,36.1653,323.9516,0.00036737,0.00051454,0.0,0 STARLINK-3897,1 52537U 22051E   22146.55490165  .00051454  00000-0  36737-3 0  9990,2 52537  53.2196 230.6057 0002193  36.1653 323.9516 15.73289214  2465,6727.641,91.528,350.981,348.03,0.0
52537.0,STARLINK-3897,PAYLOAD,2022-05-26 19:24:58,15.73232809,0.000219,53.2195,229.3481,31.7655,328.3497,-8.5114e-05,-0.00012567,0.0,0 STARLINK-3897,1 52537U 22051E   22146.80901218 -.00012567  00000-0 -85114-4 0  9992,2 52537  53.2195 229.3481 0002190  31.7655 328.3497 15.73232809  2577,6727.802,91.531,351.14,348.1930000000001,0.0
52537.0,STARLINK-3897,PAYLOAD,2022-05-26 22:00:00,15.72926672,0.0002018,53.2176,228.8063,28.2183,222.0292,0.003011,0.00439681,0.0,0 STARLINK-3897,1 52537U 22051E   22146.91667824  .00439681  00000-0  30110-2 0  9998,2 52537  53.2176 228.8063 0002018  28.2183 222.0292 15.72926672  1302,6728.675,91.549,351.897,349.182,0.0
52537.0,STARLINK-3897,PAYLOAD,2022-05-27 02:00:01,15.7321062,0.0001942,53.2173,227.9787,30.3178,84.2461,-6.3304e-05,-9.5e-05,0.0,0 STARLINK-3897,1 52537U 22051E   22147.08334491 -.00009500  00000-0 -63304-4 0  9996,2 52537  53.2173 227.9787 0001942  30.3178  84.2461 15.73210620  2616,6727.865,91.533,351.036,348.423,0.0
